NORAD_CAT_ID,OBJECT_NAME,OBJECT_TYPE,EPOCH,MEAN_MOTION,ECCENTRICITY,INCLINATION,RA_OF_ASC_NODE,ARG_OF_PERICENTER,MEAN_ANOMALY,BSTAR,MEAN_MOTION_DOT,MEAN_MOTION_DDOT,TLE_LINE0,TLE_LINE1,TLE_LINE2,SEMIMAJOR_AXIS,PERIOD,APOGEE,PERIGEE,DECAYED
56493.0,STARLINK-5841,PAYLOAD,2023-08-31 02:38:47,15.68431193,0.0005957,69.9994,289.314,73.2902,286.8947,-0.0016095,-0.0017854,0.0,0 STARLINK-5841,1 56493U 23064AX  23243.11026875 -.00178540  00000-0 -16095-2 0  9996,2 56493  69.9994 289.3140 0005957  73.2902 286.8947 15.68431193 18016,6741.526,91.811,367.407,359.375,0.0
56493.0,STARLINK-5841,PAYLOAD,2023-08-31 14:00:01,15.69911549,0.0003394,69.9996,287.9714,276.4994,244.7774,0.00017479,0.00020846,0.0,0 STARLINK-5841,1 56493U 23064AX  23243.58334491  .00020846  00000-0  17479-3 0  9994,2 56493  69.9996 287.9714 0003394 276.4994 244.7774 15.69911549 18098,6737.287,91.725,361.439,356.865,0.0
56493.0,STARLINK-5841,PAYLOAD,2023-08-31 16:00:00,15.69923523,0.0003383,69.9994,287.737,276.3215,355.7852,-2.7926e-05,-3.569e-05,0.0,0 STARLINK-5841,1 56493U 23064AX  23243.66667824 -.00003569  00000-0 -27926-4 0  9996,2 56493  69.9994 287.7370 0003383 276.3215 355.7852 15.69923523  6020,6737.253,91.724,361.397,356.839,0.0
56493.0,STARLINK-5841,PAYLOAD,2023-09-01 09:11:42,15.69925501,0.000326,69.9975,285.7227,270.0694,90.0129,1.4994e-05,1.591e-05,0.0,0 STARLINK-5841,1 56493U 23064AX  23244.38313156  .00001591  00000-0  14994-4 0  9994,2 56493  69.9975 285.7227 0003260 270.0694  90.0129 15.69925501 17862,6737.247,91.724,361.308,356.916,0.0
56493.0,STARLINK-5841,PAYLOAD,2023-09-01 19:53:58,15.69929333,0.0003408,69.9966,284.4688,270.0622,90.0183,1.5361e-05,1.635e-05,0.0,0 STARLINK-5841,1 56493U 23064AX  23244.82914593  .00001635  00000-0  15361-4 0  9993,2 56493  69.9966 284.4688 0003408 270.0622  90.0183 15.69929333 18288,6737.236,91.724,361.397,356.805,0.0
56493.0,STARLINK-5841,PAYLOAD,2023-09-02 12:43:15,15.69916854,0.0003364,69.9967,282.4987,272.2312,87.8499,4.6792e-06,3.5e-06,0.0,0 STARLINK-5841,1 56493U 23064AX  23245.53004079  .00000350  00000-0  46792-5 0  9997,2 56493  69.9967 282.4987 0003364 272.2312  87.8499 15.69916854 18042,6737.272,91.725,361.403,356.87,0.0
56493.0,STARLINK-5841,PAYLOAD,2023-09-02 14:14:58,15.69950052,0.0004871,69.9996,282.3171,256.936,103.1292,-7.2406e-06,-1.086e-05,0.0,0 STARLINK-5841,1 56493U 23064AX  23245.59373360 -.00001086  00000-0 -72406-5 0  9995,2 56493  69.9996 282.3171 0004871 256.9360 103.1292 15.69950052 18405,6737.177,91.723,362.324,355.76,0.0
56493.0,STARLINK-5841,PAYLOAD,2023-09-03 02:29:00,15.69937883,0.0003477,69.999,280.8851,273.8679,86.2119,1.4094e-05,1.483e-05,0.0,0 STARLINK-5841,1 56493U 23064AX  23246.10347536  .00001483  00000-0  14094-4 0  9996,2 56493  69.9990 280.8851 0003477 273.8679  86.2119 15.69937883 18483,6737.212,91.723,361.419,356.734,0.0
56493.0,STARLINK-5841,PAYLOAD,2023-09-03 08:36:03,15.69904543,0.0003323,69.9989,280.1687,273.1503,86.9313,-2.3014e-05,-2.977e-05,0.0,0 STARLINK-5841,1 56493U 23064AX  23246.35836990 -.00002977  00000-0 -23014-4 0  9993,2 56493  69.9989 280.1687 0003323 273.1503  86.9313 15.69904543 18525,6737.307,91.725,361.411,356.933,0.0
56493.0,STARLINK-5841,PAYLOAD,2023-09-03 14:43:02,15.69915188,0.0003414,69.9997,279.4521,273.1155,86.965,-1.0044e-05,-1.42e-05,0.0,0 STARLINK-5841,1 56493U 23064AX  23246.61322858 -.00001420  00000-0 -10044-4 0  9996,2 56493  69.9997 279.4521 0003414 273.1155  86.9650 15.69915188 18561,6737.277,91.725,361.442,356.842,0.0
56493.0,STARLINK-5841,PAYLOAD,2023-09-03 19:18:17,15.69925739,0.0003612,69.9982,278.9149,271.9132,88.165,2.864e-06,1.31e-06,0.0,0 STARLINK-5841,1 56493U 23064AX  23246.80436997  .00000131  00000-0  28640-5 0  9995,2 56493  69.9982 278.9149 0003612 271.9132  88.1650 15.69925739 18596,6737.246,91.724,361.545,356.678,0.0
56493.0,STARLINK-5841,PAYLOAD,2023-09-04 12:07:33,15.69924314,0.0003325,69.9978,276.9452,276.1257,83.956,1.7466e-05,1.888e-05,0.0,0 STARLINK-5841,1 56493U 23064AX  23247.50525418  .00001888  00000-0  17466-4 0  9993,2 56493  69.9978 276.9452 0003325 276.1257  83.9560 15.69924314 18357,6737.251,91.724,361.356,356.875,0.0
56493.0,STARLINK-5841,PAYLOAD,2023-09-04 19:46:19,15.6993159,0.0003336,69.9978,276.0492,274.3703,85.7112,3.369e-06,1.92e-06,0.0,0 STARLINK-5841,1 56493U 23064AX  23247.82383578  .00000192  00000-0  33690-5 0  9992,2 56493  69.9978 276.0492 0003336 274.3703  85.7112 15.69931590 18751,6737.23,91.724,361.342,356.847,0.0
56493.0,STARLINK-5841,PAYLOAD,2023-09-05 01:53:19,15.69930348,0.0003341,69.9977,275.3325,273.4393,86.6421,3.6098e-06,2.21e-06,0.0,0 STARLINK-5841,1 56493U 23064AX  23248.07870271  .00000221  00000-0  36098-5 0  9999,2 56493  69.9977 275.3325 0003341 273.4393  86.6421 15.69930348 18447,6737.233,91.724,361.349,356.847,0.0
56493.0,STARLINK-5841,PAYLOAD,2023-09-05 18:42:36,15.69920687,0.0003403,69.9975,273.3618,271.7213,88.3593,1.6391e-05,1.758e-05,0.0,0 STARLINK-5841,1 56493U 23064AX  23248.77959221  .00001758  00000-0  16391-4 0  9998,2 56493  69.9975 273.3618 0003403 271.7213  88.3593 15.69920687 18904,6737.261,91.724,361.419,356.833,0.0
56493.0,STARLINK-5841,PAYLOAD,2023-09-06 19:10:38,15.6992469,0.0003479,69.9977,270.4949,269.4753,90.6044,5.9653e-06,5.04e-06,0.0,0 STARLINK-5841,1 56493U 23064AX  23249.79905851  .00000504  00000-0  59653-5 0  9998,2 56493  69.9977 270.4949 0003479 269.4753  90.6044 15.69924690 18711,6737.249,91.724,361.458,356.771,0.0
56493.0,STARLINK-5841,PAYLOAD,2023-09-07 01:17:38,15.69930069,0.0003387,69.9975,269.7785,270.9621,89.1186,4.7815e-06,3.62e-06,0.0,0 STARLINK-5841,1 56493U 23064AX  23250.05392221  .00000362  00000-0  47815-5 0  9999,2 56493  69.9975 269.7785 0003387 270.9621  89.1186 15.69930069 19108,6737.234,91.724,361.381,356.817,0.0
56493.0,STARLINK-5841,PAYLOAD,2023-09-07 08:56:24,15.69930257,0.0003455,69.9971,268.8835,269.8951,90.1849,7.4236e-07,-1.24e-06,0.0,0 STARLINK-5841,1 56493U 23064AX  23250.37250549 -.00000124  00000-0  74236-6 0  9995,2 56493  69.9971 268.8835 0003455 269.8951  90.1849 15.69930257 18802,6737.234,91.724,361.426,356.771,0.0
56493.0,STARLINK-5841,PAYLOAD,2023-09-08 03:17:25,15.69929433,0.0003328,69.9985,266.733,269.0926,90.9889,1.2234e-05,1.259e-05,0.0,0 STARLINK-5841,1 56493U 23064AX  23251.13710500  .00001259  00000-0  12234-4 0  9995,2 56493  69.9985 266.7330 0003328 269.0926  90.9889 15.69929433 19275,6737.236,91.724,361.343,356.859,0.0
56493.0,STARLINK-5841,PAYLOAD,2023-09-08 10:56:12,15.69915973,0.0003153,70.0,265.8396,269.8671,90.2164,-7.6302e-07,-3.04e-06,0.0,0 STARLINK-5841,1 56493U 23064AX  23251.45570019 -.00000304  00000-0 -76302-6 0  9999,2 56493  70.0000 265.8396 0003153 269.8671  90.2164 15.69915973 19328,6737.274,91.725,361.264,357.015,0.0
56493.0,STARLINK-5841,PAYLOAD,2023-09-08 12:27:57,15.69919773,0.0002471,69.9994,265.6617,269.6498,90.4415,6.7561e-06,6e-06,0.0,0 STARLINK-5841,1 56493U 23064AX  23251.51941618  .00000600  00000-0  67561-5 0  9996,2 56493  69.9994 265.6617 0002471 269.6498  90.4415 15.69919773 18982,6737.264,91.724,360.793,357.464,0.0
56493.0,STARLINK-5841,PAYLOAD,2023-09-09 02:13:42,15.69926217,0.0003443,69.9991,264.0476,268.1569,91.9233,1.246e-05,1.286e-05,0.0,0 STARLINK-5841,1 56493U 23064AX  23252.09285806  .00001286  00000-0  12460-4 0  9998,2 56493  69.9991 264.0476 0003443 268.1569  91.9233 15.69926217 19423,6737.245,91.724,361.43,356.79,0.0
56493.0,STARLINK-5841,PAYLOAD,2023-09-09 09:52:28,15.69924311,0.0002668,69.9996,263.1515,260.1048,99.9847,2.217e-05,2.454e-05,0.0,0 STARLINK-5841,1 56493U 23064AX  23252.41144408  .00002454  00000-0  22170-4 0  9993,2 56493  69.9996 263.1515 0002668 260.1048  99.9847 15.69924311 19123,6737.251,91.724,360.913,357.318,0.0
56493.0,STARLINK-5841,PAYLOAD,2023-09-10 10:20:31,15.69910846,0.0002586,69.9998,260.2859,250.5147,109.5769,-7.3726e-06,-1.098e-05,0.0,0 STARLINK-5841,1 56493U 23064AX  23253.43092440 -.00001098  00000-0 -73726-5 0  9993,2 56493  69.9998 260.2859 0002586 250.5147 109.5769 15.69910846 19631,6737.289,91.725,360.896,357.412,0.0
56493.0,STARLINK-5841,PAYLOAD,2023-09-10 17:59:16,15.69923523,0.0002879,69.9992,259.3892,263.9229,96.1639,9.8542e-06,9.72e-06,0.0,0 STARLINK-5841,1 56493U 23064AX  23253.74949890  .00000972  00000-0  98542-5 0  9998,2 56493  69.9992 259.3892 0002879 263.9229  96.1639 15.69923523 19683,6737.253,91.724,361.057,357.178,0.0
56493.0,STARLINK-5841,PAYLOAD,2023-09-11 03:09:46,15.69931791,0.0003171,70.0021,258.3159,266.6449,93.4384,1.7744e-05,1.922e-05,0.0,0 STARLINK-5841,1 56493U 23064AX  23254.13179192  .00001922  00000-0  17744-4 0  9992,2 56493  70.0021 258.3159 0003171 266.6449  93.4384 15.69931791 19744,6737.229,91.724,361.231,356.958,0.0
56493.0,STARLINK-5841,PAYLOAD,2023-09-11 09:16:47,15.69933308,0.0003184,70.0018,257.5986,265.6901,94.3931,1.0347e-05,1.032e-05,0.0,0 STARLINK-5841,1 56493U 23064AX  23254.38665773  .00001032  00000-0  10347-4 0  9998,2 56493  70.0018 257.5986 0003184 265.6901  94.3931 15.69933308 19435,6737.225,91.724,361.235,356.945,0.0
56493.0,STARLINK-5841,PAYLOAD,2023-09-12 02:06:03,15.69927977,0.0002808,70.002,255.6297,265.2039,94.8836,1.2346e-05,1.272e-05,0.0,0 STARLINK-5841,1 56493U 23064AX  23255.08754454  .00001272  00000-0  12346-4 0  9998,2 56493  70.0020 255.6297 0002808 265.2039  94.8836 15.69927977 19896,6737.24,91.724,360.997,357.213,0.0
56493.0,STARLINK-5841,PAYLOAD,2023-09-12 09:44:50,15.69920731,0.0002578,69.9994,254.7306,260.4541,99.6363,1.6563e-06,-1.3e-07,0.0,0 STARLINK-5841,1 56493U 23064AX  23255.40613440 -.00000013  00000-0  16563-5 0  9992,2 56493  69.9994 254.7306 0002578 260.4541  99.6363 15.69920731 19948,6737.261,91.724,360.863,357.389,0.0
56493.0,STARLINK-5841,PAYLOAD,2023-09-12 17:23:35,15.69923813,0.0003014,69.9981,253.8348,265.6636,94.4216,1.6022e-05,1.714e-05,0.0,0 STARLINK-5841,1 56493U 23064AX  23255.72471536  .00001714  00000-0  16022-4 0  9992,2 56493  69.9981 253.8348 0003014 265.6636  94.4216 15.69923813 19649,6737.252,91.724,361.148,357.086,0.0
